NORAD_CAT_ID,OBJECT_NAME,OBJECT_TYPE,EPOCH,MEAN_MOTION,ECCENTRICITY,INCLINATION,RA_OF_ASC_NODE,ARG_OF_PERICENTER,MEAN_ANOMALY,BSTAR,MEAN_MOTION_DOT,MEAN_MOTION_DDOT,TLE_LINE0,TLE_LINE1,TLE_LINE2,SEMIMAJOR_AXIS,PERIOD,APOGEE,PERIGEE,DECAYED
51755.0,STARLINK-3460,PAYLOAD,2022-08-14 14:00:01,15.08847059,0.0001526,53.2172,38.9949,61.2726,106.0125,-0.00090474,-0.00014661,0.0,0 STARLINK-3460,1 51755U 22016AT  22226.58334491 -.00014661  00000-0 -90474-3 0  9992,2 51755  53.2172  38.9949 0001526  61.2726 106.0125 15.08847059  1301,6917.859,95.437,540.779,538.668,0.0
51755.0,STARLINK-3460,PAYLOAD,2022-08-14 22:00:00,15.08815781,0.0001626,53.2174,37.4999,52.5604,126.3287,0.003403,0.00054252,0.0,0 STARLINK-3460,1 51755U 22016AT  22226.91667824  .00054252  00000-0  34030-2 0  9991,2 51755  53.2174  37.4999 0001626  52.5604 126.3287 15.08815781  1302,6917.954000000002,95.439,540.944,538.695,0.0
51755.0,STARLINK-3460,PAYLOAD,2022-08-15 14:00:01,15.08839862,0.0001453,53.218,34.5059,58.0499,144.0178,-0.0011329,-0.00018273,0.0,0 STARLINK-3460,1 51755U 22016AT  22227.58334491 -.00018273  00000-0 -11329-2 0  9997,2 51755  53.2180  34.5059 0001453  58.0499 144.0178 15.08839862  1307,6917.880999999999,95.438,540.751,538.741,0.0
51755.0,STARLINK-3460,PAYLOAD,2022-08-15 16:00:00,15.08837997,0.0001499,53.2178,34.1323,55.1442,239.8212,-0.0012214,-0.00019673,0.0,0 STARLINK-3460,1 51755U 22016AT  22227.66667824 -.00019673  00000-0 -12214-2 0  9994,2 51755  53.2178  34.1323 0001499  55.1442 239.8212 15.08837997 28252,6917.887,95.438,540.789,538.715,0.0
51755.0,STARLINK-3460,PAYLOAD,2022-08-15 22:00:00,15.08808158,0.0001574,53.2179,33.0109,50.0226,163.638,0.0032411,0.00051627,0.0,0 STARLINK-3460,1 51755U 22016AT  22227.91667824  .00051627  00000-0  32411-2 0  9996,2 51755  53.2179  33.0109 0001574  50.0226 163.6380 15.08808158  1305,6917.978,95.44,540.932,538.754,0.0
51755.0,STARLINK-3460,PAYLOAD,2022-08-16 08:00:01,15.08816,0.000139,53.2181,31.1385,58.521,259.6292,0.0033159999999999,0.00052847,0.0,0 STARLINK-3460,1 51755U 22016AT  22228.33334491  .00052847  00000-0  33160-2 0  9991,2 51755  53.2181  31.1385 0001390  58.5210 259.6292 15.08816000 28352,6917.954000000002,95.439,540.78,538.857,0.0
51755.0,STARLINK-3460,PAYLOAD,2022-08-16 14:00:01,15.08860734,0.0001465999999999,53.2184,30.0171,57.804,179.0311,-0.0011999,-0.00019344,0.0,0 STARLINK-3460,1 51755U 22016AT  22228.58334491 -.00019344  00000-0 -11999-2 0  9991,2 51755  53.2184  30.0171 0001466  57.8040 179.0311 15.08860734  1309,6917.816999999999,95.436,540.696,538.668,0.0
51755.0,STARLINK-3460,PAYLOAD,2022-08-16 22:00:00,15.088422400000002,0.0001607,53.2181,28.5219,51.3578,197.0942,-1.2339e-06,-3.08e-06,0.0,0 STARLINK-3460,1 51755U 22016AT  22228.91667824 -.00000308  00000-0 -12339-5 0  9999,2 51755  53.2181  28.5219 0001607  51.3578 197.0942 15.08842240  1305,6917.874,95.437,540.85,538.627,0.0
51755.0,STARLINK-3460,PAYLOAD,2022-08-17 16:00:00,15.08853236,0.0001565999999999,53.2182,25.1548,56.6561,307.8738,-0.0018452,-0.00029545,0.0,0 STARLINK-3460,1 51755U 22016AT  22229.66667824 -.00029545  00000-0 -18452-2 0  9995,2 51755  53.2182  25.1548 0001566  56.6561 307.8738 15.08853236  1309,6917.84,95.437,540.788,538.622,0.0
51755.0,STARLINK-3460,PAYLOAD,2022-08-18 08:00:01,15.08804206,0.0001348,53.2178,22.1608,60.1787,327.5427,0.0034528,0.00055038,0.0,0 STARLINK-3460,1 51755U 22016AT  22230.33334491  .00055038  00000-0  34528-2 0  9998,2 51755  53.2178  22.1608 0001348  60.1787 327.5427 15.08804206 28661,6917.99,95.44,540.7869999999998,538.922,0.0
51755.0,STARLINK-3460,PAYLOAD,2022-08-18 14:00:01,15.08851881,0.0001435,53.2179,21.0397,57.5643,248.8377,-0.0011779,-0.00018991,0.0,0 STARLINK-3460,1 51755U 22016AT  22230.58334491 -.00018991  00000-0 -11779-2 0  9997,2 51755  53.2179  21.0397 0001435  57.5643 248.8377 15.08851881  1305,6917.844,95.437,540.702,538.716,0.0
51755.0,STARLINK-3460,PAYLOAD,2022-08-18 22:00:00,15.08834253,0.0001503,53.2174,19.5443,50.1577,267.8458,0.0021269,0.00033719,0.0,0 STARLINK-3460,1 51755U 22016AT  22230.91667824  .00033719  00000-0  21269-2 0  9991,2 51755  53.2174  19.5443 0001503  50.1577 267.8458 15.08834253 28747,6917.898,95.438,540.803,538.7230000000002,0.0
51755.0,STARLINK-3460,PAYLOAD,2022-08-19 14:00:01,15.08857834,0.0001416,53.2174,16.5509,55.1546,286.0601,-0.004105,-0.00065061,0.0,0 STARLINK-3460,1 51755U 22016AT  22231.58334491 -.00065061  00000-0 -41050-2 0  9993,2 51755  53.2174  16.5509 0001416  55.1546 286.0601 15.08857834  1307,6917.826,95.436,540.67,538.711,0.0
51755.0,STARLINK-3460,PAYLOAD,2022-08-19 16:00:00,15.08837014,0.0001498,53.2173,16.1773,53.9781,20.1387,-0.0027053,-0.00043082,0.0,0 STARLINK-3460,1 51755U 22016AT  22231.66667824 -.00043082  00000-0 -27053-2 0  9997,2 51755  53.2173  16.1773 0001498  53.9781  20.1387 15.08837014 28868,6917.89,95.438,540.7909999999998,538.7180000000002,0.0
51755.0,STARLINK-3460,PAYLOAD,2022-08-19 22:00:00,15.08808483,0.000153,53.217,15.0552,50.0343,302.7648,0.0015894,0.00025076,0.0,0 STARLINK-3460,1 51755U 22016AT  22231.91667824  .00025076  00000-0  15894-2 0  9996,2 51755  53.2170  15.0552 0001530  50.0343 302.7648 15.08808483  1304,6917.977,95.44,540.9,538.783,0.0
51755.0,STARLINK-3460,PAYLOAD,2022-08-20 08:00:01,15.08804913,0.0001424,53.2171,13.1829,59.9667,37.2913,0.0026378,0.00041902,0.0,0 STARLINK-3460,1 51755U 22016AT  22232.33334491  .00041902  00000-0  26378-2 0  9999,2 51755  53.2171  13.1829 0001424  59.9667  37.2913 15.08804913 28960,6917.988,95.44,540.8380000000002,538.868,0.0
51755.0,STARLINK-3460,PAYLOAD,2022-08-20 14:00:01,15.08842531,0.0001518,53.2173,12.0582,56.1941,319.7429,-0.00145,-0.00023292,0.0,0 STARLINK-3460,1 51755U 22016AT  22232.58334491 -.00023292  00000-0 -14500-2 0  9994,2 51755  53.2173  12.0582 0001518  56.1941 319.7429 15.08842531  1301,6917.873000000001,95.437,540.788,538.688,0.0
51755.0,STARLINK-3460,PAYLOAD,2022-08-20 22:00:00,15.08834391,0.0001575999999999,53.217,10.5661,49.00100000000001,338.5222,0.0011669,0.00018329,0.0,0 STARLINK-3460,1 51755U 22016AT  22232.91667824  .00018329  00000-0  11669-2 0  9996,2 51755  53.2170  10.5661 0001576  49.0010 338.5222 15.08834391  1306,6917.898,95.438,540.8530000000002,538.672,0.0
51755.0,STARLINK-3460,PAYLOAD,2022-08-21 06:00:00,15.08817255,0.0001419999999999,53.2172,9.0679,56.6733,342.4478,0.0030194,0.00048064,0.0,0 STARLINK-3460,1 51755U 22016AT  22233.25001157  .00048064  00000-0  30194-2 0  9998,2 51755  53.2172   9.0679 0001420  56.6733 342.4478 15.08817255 29109,6917.95,95.439,540.797,538.8330000000002,0.0
51755.0,STARLINK-3460,PAYLOAD,2022-08-21 14:00:01,15.08860954,0.0001535,53.2173,7.5729,52.3578,358.3518,-0.0039116,-0.00062041,0.0,0 STARLINK-3460,1 51755U 22016AT  22233.58334491 -.00062041  00000-0 -39116-2 0  9990,2 51755  53.2173   7.5729 0001535  52.3578 358.3518 15.08860954  1303,6917.816,95.436,540.743,538.619,0.0
51755.0,STARLINK-3460,PAYLOAD,2022-08-21 22:00:00,15.08827521,0.0001551,53.2173,6.0767,45.6458,16.6546,0.00060055,9.279e-05,0.0,0 STARLINK-3460,1 51755U 22016AT  22233.91667824  .00009279  00000-0  60055-3 0  9995,2 51755  53.2173   6.0767 0001551  45.6458  16.6546 15.08827521 29206,6917.919,95.438,540.857,538.711,0.0
51755.0,STARLINK-3460,PAYLOAD,2022-08-22 00:00:00,15.08844004,0.0001515,53.2174,5.7022,47.9559,107.2356,-0.0015234,-0.00024454,0.0,0 STARLINK-3460,1 51755U 22016AT  22234.00001157 -.00024454  00000-0 -15234-2 0  9999,2 51755  53.2174   5.7022 0001515  47.9559 107.2356 15.08844004  1306,6917.868,95.437,540.781,538.685,0.0
51755.0,STARLINK-3460,PAYLOAD,2022-08-22 12:00:00,15.08854078,0.0001501,53.2179,3.4573,52.4822,300.0861,-0.0014428,-0.00023185,0.0,0 STARLINK-3460,1 51755U 22016AT  22234.50001157 -.00023185  00000-0 -14428-2 0  9998,2 51755  53.2179   3.4573 0001501  52.4822 300.0861 15.08854078  1302,6917.837,95.437,540.741,538.664,0.0
51755.0,STARLINK-3460,PAYLOAD,2022-08-22 22:00:00,15.08860724,0.0001645,53.2178,1.5875,46.614,50.45,-0.0022585,-0.00036073,0.0,0 STARLINK-3460,1 51755U 22016AT  22234.91667824 -.00036073  00000-0 -22585-2 0  9995,2 51755  53.2178   1.5875 0001645  46.6140  50.4500 15.08860724  1303,6917.816999999999,95.436,540.82,538.544,0.0
51755.0,STARLINK-3460,PAYLOAD,2022-08-23 06:00:00,15.08807146,0.0001533,53.2181,0.0895,55.7697,52.9048,0.0024307,0.00038574,0.0,0 STARLINK-3460,1 51755U 22016AT  22235.25001157  .00038574  00000-0  24307-2 0  9994,2 51755  53.2181   0.0895 0001533  55.7697  52.9048 15.08807146 29401,6917.981,95.44,540.906,538.785,0.0
51755.0,STARLINK-3460,PAYLOAD,2022-08-23 14:00:01,15.08835879,0.0001682,53.2182,358.5947,52.4097,67.834,-0.0013279,-0.00021357,0.0,0 STARLINK-3460,1 51755U 22016AT  22235.58334491 -.00021357  00000-0 -13279-2 0  9999,2 51755  53.2182 358.5947 0001682  52.4097  67.8340 15.08835879  1307,6917.893,95.438,540.922,538.594,0.0
51755.0,STARLINK-3460,PAYLOAD,2022-08-23 22:00:01,15.08839233,0.0001696,53.2182,357.0983,49.2051,82.6791,-0.00056425,-9.257e-05,0.0,0 STARLINK-3460,1 51755U 22016AT  22235.91668981 -.00009257  00000-0 -56425-3 0  9996,2 51755  53.2182 357.0983 0001696  49.2051  82.6791 15.08839233  1303,6917.8830000000025,95.438,540.9209999999998,538.5740000000002,0.0
51755.0,STARLINK-3460,PAYLOAD,2022-08-24 14:00:01,15.08846168,0.0001669,53.2185,354.1059,52.1519,102.8497,-0.0011113,-0.00017934,0.0,0 STARLINK-3460,1 51755U 22016AT  22236.58334491 -.00017934  00000-0 -11113-2 0  9991,2 51755  53.2185 354.1059 0001669  52.1519 102.8497 15.08846168  1303,6917.861999999999,95.437,540.881,538.572,0.0
51755.0,STARLINK-3460,PAYLOAD,2022-08-24 22:00:00,15.08854651,0.0001663,53.2183,352.6093,49.9511,116.6415,-0.0010918,-0.00017629,0.0,0 STARLINK-3460,1 51755U 22016AT  22236.91667824 -.00017629  00000-0 -10918-2 0  9990,2 51755  53.2183 352.6093 0001663  49.9511 116.6415 15.08854651  1301,6917.8359999999975,95.437,540.851,538.55,0.0
